{
    "links": {
        "self": "http://www.neowsapp.com/rest/v1/neo/3337559?api_key=iIulBulltgU6a56xZRHN4H3l9WmuAYTsLGpBGhQ2"
    },
    "id": "3337559",
    "neo_reference_id": "3337559",
    "name": "(2006 OA1)",
    "designation": "2006 OA1",
    "nasa_jpl_url": "http://ssd.jpl.nasa.gov/sbdb.cgi?sstr=3337559",
    "absolute_magnitude_h": 22.3,
    "estimated_diameter": {
        "kilometers": {
            "estimated_diameter_min": 0.0921626549,
            "estimated_diameter_max": 0.2060819612
        },
        "meters": {
            "estimated_diameter_min": 92.1626548503,
            "estimated_diameter_max": 206.0819612321
        },
        "miles": {
            "estimated_diameter_min": 0.057267201,
            "estimated_diameter_max": 0.1280533543
        },
        "feet": {
            "estimated_diameter_min": 302.370924539,
            "estimated_diameter_max": 676.1219416887
        }
    },
    "is_potentially_hazardous_asteroid": false,
    "close_approach_data": [
        {
            "close_approach_date": "2006-07-19",
            "close_approach_date_full": "2006-Jul-19 09:47",
            "epoch_date_close_approach": 1153302420000,
            "relative_velocity": {
                "kilometers_per_second": "19.4945255846",
                "kilometers_per_hour": "70180.292104452",
                "miles_per_hour": "43607.3042801246"
            },
            "miss_distance": {
                "astronomical": "0.1079729517",
                "lunar": "42.0014782113",
                "kilometers": "16152523.591932879",
                "miles": "10036712.7514725702"
            },
            "orbiting_body": "Earth"
        },
        {
            "close_approach_date": "2006-12-28",
            "close_approach_date_full": "2006-Dec-28 10:15",
            "epoch_date_close_approach": 1167300900000,
            "relative_velocity": {
                "kilometers_per_second": "18.6643054011",
                "kilometers_per_hour": "67191.4994439564",
                "miles_per_hour": "41750.1847517184"
            },
            "miss_distance": {
                "astronomical": "0.4553942121",
                "lunar": "177.1483485069",
                "kilometers": "68126004.140488227",
                "miles": "42331536.0334904526"
            },
            "orbiting_body": "Earth"
        }
    ],
    "orbital_data": {
        "orbit_id": "7",
        "orbit_determination_date": "2017-04-06 09:08:24",
        "first_observation_date": "2006-07-18",
        "last_observation_date": "2006-07-25",
        "data_arc_in_days": 7,
        "observations_used": 27,
        "orbit_uncertainty": "9",
        "minimum_orbit_intersection": ".100027",
        "jupiter_tisserand_invariant": "4.573",
        "epoch_osculation": "2453937.5",
        "eccentricity": ".2651500117370433",
        "semi_major_axis": "1.381574301220761",
        "inclination": "35.72451222117959",
        "ascending_node_longitude": "115.2154033061402",
        "orbital_period": "593.1435283790657",
        "perihelion_distance": "1.015249859036479",
        "perihelion_argument": "236.8679184803092",
        "aphelion_distance": "1.747898743405043",
        "perihelion_time": "2453987.542616643537",
        "mean_anomaly": "329.627347969377",
        "mean_motion": ".606935729339917",
        "equinox": "J2000",
        "orbit_class": {
            "orbit_class_type": "APO",
            "orbit_class_description": "Near-Earth asteroid orbits which cross the Earth’s orbit similar to that of 1862 Apollo",
            "orbit_class_range": "a (semi-major axis) > 1.0 AU; q (perihelion) < 1.017 AU"
        }
    },
    "is_sentry_object": false
}